{
"type": "FeatureCollection",
"name": "Payne",
"features": [
{ "type": "Feature", "properties": { "COUNTY_FIP": 119, "COUNTY_NO": 60, "MAINTENANC": 4, "COUNTY_NAM": "PAYNE", "ADT_FACTOR": 1.01, "MAIN_DISTR": 615, "PHONE_NO_B": "(918) 225-3777", "DESC_LOCAT": null, "MSLINK": 60.0, "MAPID": 101474.0, "LOGIN": "upln038", "CREATION_D": "1999-07-23", "CNTY_SEAT_": 2300, "MUNICIPAL_": 70300.0 }, "geometry": { "type": "MultiPolygon", "coordinates": [ [ [ [ -96.784220507014012, 36.159149390278429 ], [ -96.76629811357769, 36.159253111608187 ], [ -96.74894187167564, 36.159282731449792 ], [ -96.734703527507875, 36.159359928951147 ], [ -96.730914658960927, 36.159380192008811 ], [ -96.713114492419621, 36.159425859832339 ], [ -96.713113589260388, 36.159425861589732 ], [ -96.703693699393753, 36.159471239585102 ], [ -96.702821742863208, 36.159475403306388 ], [ -96.695535650172232, 36.159509953797198 ], [ -96.677541572441143, 36.15953228411373 ], [ -96.668592776849522, 36.159608471655631 ], [ -96.659643964365515, 36.159684003995615 ], [ -96.64174977453024, 36.159677523692721 ], [ -96.632808767141753, 36.15973069087579 ], [ -96.621434819307041, 36.159876366928849 ], [ -96.621434819307041, 36.159876366928849 ], [ -96.621580343714285, 36.157119139376896 ], [ -96.621719442841581, 36.153169239839272 ], [ -96.6221006375862, 36.146706956345724 ], [ -96.622134877795375, 36.144709440793811 ], [ -96.622156705731214, 36.141683267703655 ], [ -96.622203299754858, 36.13896474060919 ], [ -96.622381918177879, 36.13380055283573 ], [ -96.622566244977804, 36.13005506248286 ], [ -96.622453696763358, 36.126105237310604 ], [ -96.62236197659584, 36.122672959403481 ], [ -96.622372974073272, 36.116851978406309 ], [ -96.622529180633833, 36.104280106418521 ], [ -96.622557768414978, 36.102610922137828 ], [ -96.622531333845359, 36.100701288227654 ], [ -96.622590035694429, 36.088640496641958 ], [ -96.622712677142559, 36.078024029615335 ], [ -96.622871208715409, 36.067035361099641 ], [ -96.622914501191218, 36.061051620129426 ], [ -96.622768149869671, 36.052334390181159 ], [ -96.62282425661985, 36.047328735372155 ], [ -96.622618064926058, 36.042110542735983 ], [ -96.622573263587995, 36.039548669532408 ], [ -96.622480138370435, 36.036357550172397 ], [ -96.622273200212589, 36.031185896340553 ], [ -96.622403246786305, 36.028765698155055 ], [ -96.622434151307658, 36.02178045848359 ], [ -96.622501069256202, 36.017869275523864 ], [ -96.622149605224379, 36.009063425798608 ], [ -96.62213471352716, 36.004755447211494 ], [ -96.622167273042422, 35.999400150605467 ], [ -96.62184370439256, 35.995945152947094 ], [ -96.621500344338102, 35.988716862087522 ], [ -96.621294811090237, 35.97763707222478 ], [ -96.621094218127951, 35.968370491687828 ], [ -96.621286815017228, 35.965511210970341 ], [ -96.621392959688151, 35.95930784881029 ], [ -96.621327245183167, 35.948456169125144 ], [ -96.621294171360162, 35.944092745160084 ], [ -96.621157807814896, 35.941569696190136 ], [ -96.624482479740664, 35.941578832419765 ], [ -96.625248223751512, 35.941530652870512 ], [ -96.63319494325988, 35.941412237787098 ], [ -96.634290309915741, 35.941528413544177 ], [ -96.642975480840818, 35.941867855085839 ], [ -96.652284388843668, 35.941659458895636 ], [ -96.660054962585363, 35.941571979135269 ], [ -96.677736783202548, 35.942007519969664 ], [ -96.691563019043144, 35.942018211924477 ], [ -96.712797731543645, 35.942071173483015 ], [ -96.72464692239636, 35.942195742509227 ], [ -96.762385614997044, 35.942113796641884 ], [ -96.781316556448488, 35.942145584378181 ], [ -96.802383027195091, 35.942195434819638 ], [ -96.820176593697454, 35.942227668795162 ], [ -96.838829859277581, 35.941947543799408 ], [ -96.856437820263736, 35.942114028230542 ], [ -96.873967494609687, 35.942118269347546 ], [ -96.891798730096014, 35.941354348246051 ], [ -96.89614041931415, 35.941464405695946 ], [ -96.913644944437962, 35.941657018251817 ], [ -96.92769943356052, 35.942028776660472 ], [ -96.961001909213905, 35.942140583964338 ], [ -96.980643173967536, 35.941917835203419 ], [ -97.014133706614658, 35.942016700000686 ], [ -97.045306442839276, 35.941982243569598 ], [ -97.084750805117295, 35.942178850501627 ], [ -97.114767309152811, 35.942223922553062 ], [ -97.134068638818775, 35.941903328329978 ], [ -97.140581953747812, 35.941840947741021 ], [ -97.140480352998352, 35.962262629448297 ], [ -97.140903896800069, 35.961815165079628 ], [ -97.141291932207622, 35.961127212318296 ], [ -97.141988648754975, 35.960051044271403 ], [ -97.142265343739879, 35.959092034762143 ], [ -97.142271354167491, 35.958280269644746 ], [ -97.142322078559104, 35.957954446823805 ], [ -97.142385507588614, 35.957544837111456 ], [ -97.142687975639276, 35.956875966117735 ], [ -97.143155718938388, 35.956217574396661 ], [ -97.143384325542272, 35.955827763778792 ], [ -97.143531626252667, 35.955306911276573 ], [ -97.143798954553333, 35.954607962524136 ], [ -97.143977531237979, 35.954478746448011 ], [ -97.144416184685056, 35.954332714618111 ], [ -97.145010673874552, 35.953973427785463 ], [ -97.145949698515508, 35.953430163127365 ], [ -97.146532702401132, 35.953038164051421 ], [ -97.146843181800463, 35.952723477874329 ], [ -97.147189885499131, 35.952334486328205 ], [ -97.147406945740386, 35.951916629771723 ], [ -97.147613667945535, 35.951358907304169 ], [ -97.148105358594691, 35.95066338760536 ], [ -97.148463130049507, 35.950343432131753 ], [ -97.148985421861738, 35.950104773379813 ], [ -97.149436542201954, 35.94989357533008 ], [ -97.149947898823442, 35.949570962003129 ], [ -97.150328929587545, 35.949284713779484 ], [ -97.150960268397071, 35.948784926093914 ], [ -97.151436374881214, 35.948443419734055 ], [ -97.151745934677834, 35.948212588580837 ], [ -97.152055391892674, 35.947991074272871 ], [ -97.152542908025339, 35.947686923101664 ], [ -97.153053163730746, 35.947466802171533 ], [ -97.153562141503699, 35.94736782459541 ], [ -97.154214131519169, 35.947148682983993 ], [ -97.154700266022246, 35.946974986318196 ], [ -97.155329504315986, 35.946671806771498 ], [ -97.156137081680242, 35.94625802502965 ], [ -97.157515595005705, 35.94546608570765 ], [ -97.158175590357445, 35.945155642605073 ], [ -97.159327024180527, 35.944613743621531 ], [ -97.160276297197271, 35.944200909417347 ], [ -97.16121248645976, 35.943909134472726 ], [ -97.162408611030642, 35.943609818315352 ], [ -97.163532698518509, 35.943421827653083 ], [ -97.164596663768393, 35.943335930028773 ], [ -97.165188182670107, 35.94324678811568 ], [ -97.165709607223519, 35.943082609941499 ], [ -97.166527556437501, 35.942799300965476 ], [ -97.167313271834018, 35.942433755730463 ], [ -97.168332957351751, 35.942058620145495 ], [ -97.169198226259496, 35.94176630005466 ], [ -97.170298939781375, 35.941550130488537 ], [ -97.171566337622593, 35.94120461129863 ], [ -97.172560837094821, 35.940978380997358 ], [ -97.172903920701785, 35.94092479279945 ], [ -97.17378661780289, 35.94077234964054 ], [ -97.174094174303363, 35.940727835615782 ], [ -97.174413349503595, 35.940702040744235 ], [ -97.177992758030427, 35.940651678637494 ], [ -97.179788553882219, 35.940607860207543 ], [ -97.181488824313021, 35.940665886992484 ], [ -97.184636233187589, 35.940817456336859 ], [ -97.18729242908968, 35.940956351484516 ], [ -97.189203897829941, 35.941155469624995 ], [ -97.189958290082842, 35.941309597377604 ], [ -97.191545210935999, 35.941599718172057 ], [ -97.192618788048833, 35.941727986636742 ], [ -97.193290702025479, 35.941862908326421 ], [ -97.193939367907774, 35.94196039467807 ], [ -97.194847506658604, 35.942096869790532 ], [ -97.195648418163941, 35.942325825149354 ], [ -97.198320146287884, 35.943284689871149 ], [ -97.199675250807857, 35.943620322936461 ], [ -97.201507014883859, 35.944172169072722 ], [ -97.202226821590358, 35.944416806339916 ], [ -97.203135988099703, 35.944732658398806 ], [ -97.203754441721088, 35.94497662386194 ], [ -97.204247090105426, 35.94512979518521 ], [ -97.204587799441754, 35.945271974173636 ], [ -97.205330697854023, 35.945746672800112 ], [ -97.207356323445964, 35.947209409033171 ], [ -97.208592005597481, 35.949635675246434 ], [ -97.208815858830107, 35.950066993969344 ], [ -97.209012901632491, 35.950648089598033 ], [ -97.209548237143252, 35.951621255542356 ], [ -97.209798226775717, 35.951972766494464 ], [ -97.210024346772769, 35.952174168662744 ], [ -97.210237304436674, 35.95242547036792 ], [ -97.210475412141079, 35.95269692776602 ], [ -97.210662446006737, 35.953008040341487 ], [ -97.211388082180022, 35.953962436064941 ], [ -97.211651247233419, 35.954264042840528 ], [ -97.212341337955309, 35.954968283195647 ], [ -97.2139273668393, 35.956583008903365 ], [ -97.215170873855726, 35.957720661568132 ], [ -97.216558804618501, 35.959127142155481 ], [ -97.217136191334916, 35.9597006693498 ], [ -97.217361477520768, 35.959992025345677 ], [ -97.217785543287832, 35.960694522413235 ], [ -97.218222482698295, 35.961377107211206 ], [ -97.218834929661043, 35.962258751743313 ], [ -97.219147776734303, 35.962670623776994 ], [ -97.219473684103107, 35.963042592324577 ], [ -97.219812753817649, 35.963364659145995 ], [ -97.220679544308197, 35.964159950861436 ], [ -97.220969089463267, 35.964361736858486 ], [ -97.221541177002038, 35.964703281611726 ], [ -97.221995862039506, 35.964866131001415 ], [ -97.223802627180845, 35.96544746611599 ], [ -97.224636173902496, 35.965752673092325 ], [ -97.225154623406326, 35.965875929909757 ], [ -97.225571783687187, 35.965988544619471 ], [ -97.225874885086824, 35.966100433723831 ], [ -97.226215145247892, 35.966302528996586 ], [ -97.226719008856378, 35.966625624006419 ], [ -97.227147985375652, 35.966828279264142 ], [ -97.22746366944385, 35.966950240645403 ], [ -97.22761527383426, 35.967001186102024 ], [ -97.228058172843234, 35.967073969124229 ], [ -97.228906339085086, 35.967179303941421 ], [ -97.229358519442897, 35.967342109701718 ], [ -97.229876030908017, 35.967565310136969 ], [ -97.230331035406408, 35.967698140493816 ], [ -97.230558587323557, 35.967759558205458 ], [ -97.230811677079146, 35.967801141297265 ], [ -97.231216849586133, 35.967843682923665 ], [ -97.231368645978677, 35.967874631826845 ], [ -97.231596294538463, 35.967926049418423 ], [ -97.231823466849107, 35.968027448467964 ], [ -97.232769512921166, 35.968503253366556 ], [ -97.233059484565644, 35.968665026630966 ], [ -97.233273226324911, 35.968846312876956 ], [ -97.23375158747605, 35.969190209208534 ], [ -97.234116752450632, 35.969442421107892 ], [ -97.23481124908632, 35.969716694473505 ], [ -97.235380149558097, 35.969870215792021 ], [ -97.236176614986718, 35.970085139368166 ], [ -97.237073625137342, 35.970390657759644 ], [ -97.237389246342701, 35.970522589220224 ], [ -97.237566492232347, 35.970543692994219 ], [ -97.237958157416969, 35.970676098464587 ], [ -97.238337055585333, 35.970818421673187 ], [ -97.238817348348135, 35.970961374480915 ], [ -97.239120958857157, 35.971023250848354 ], [ -97.239748087129229, 35.971187109213943 ], [ -97.240456516959483, 35.971331480061345 ], [ -97.240962352670564, 35.971454590453384 ], [ -97.241973182248699, 35.971790772714705 ], [ -97.242516387152207, 35.97198408670603 ], [ -97.242819910432914, 35.972055947505829 ], [ -97.243338522166326, 35.972169133046862 ], [ -97.24379432823747, 35.972221943343328 ], [ -97.244060112836664, 35.972263579723219 ], [ -97.24507293252384, 35.972389815124373 ], [ -97.245883619863633, 35.97244481433912 ], [ -97.246695242948817, 35.972399848949152 ], [ -97.247050684986604, 35.972342063192592 ], [ -97.24749409774887, 35.97236479360528 ], [ -97.248278785483109, 35.972489596412665 ], [ -97.249167311615224, 35.972625027868411 ], [ -97.250273464851759, 35.972801779411732 ], [ -97.251224045241571, 35.97280762069667 ], [ -97.253073577684233, 35.972918931950112 ], [ -97.254226670949038, 35.972955979693552 ], [ -97.255987535216491, 35.973061708338768 ], [ -97.257254425610142, 35.973129413479235 ], [ -97.257938292077228, 35.973193558570088 ], [ -97.258647142854656, 35.973297837674856 ], [ -97.259052173823179, 35.973360278567149 ], [ -97.25935672786747, 35.973322142963525 ], [ -97.260168630435501, 35.973247097883558 ], [ -97.262677989869687, 35.973282290998434 ], [ -97.264909243108249, 35.973235784275836 ], [ -97.266786156908921, 35.973127123074356 ], [ -97.268332981679393, 35.973076436068133 ], [ -97.269170947150116, 35.972921513404188 ], [ -97.270464824037191, 35.97280930185407 ], [ -97.273353505162348, 35.972946511340481 ], [ -97.275405683820594, 35.973078684099356 ], [ -97.27616543257345, 35.973163170749643 ], [ -97.2771001131036, 35.973528597906608 ], [ -97.277756857961506, 35.97379240484328 ], [ -97.278437344252708, 35.974236289634781 ], [ -97.280373344172133, 35.976027144403972 ], [ -97.281036547127783, 35.976706829432558 ], [ -97.28153837775622, 35.977289595290685 ], [ -97.281838480456543, 35.977751211300102 ], [ -97.282291760707722, 35.978093766227659 ], [ -97.282669881957844, 35.978335912786669 ], [ -97.283099595233665, 35.978478394723389 ], [ -97.283453081896639, 35.978640417866679 ], [ -97.284035968027339, 35.978663834580438 ], [ -97.28471866296168, 35.978867776824572 ], [ -97.285198551007582, 35.979070524282733 ], [ -97.2855770401885, 35.979272675786525 ], [ -97.285827181440496, 35.979654014941609 ], [ -97.286025383604567, 35.980175004103231 ], [ -97.286071123824982, 35.980735086064136 ], [ -97.285859984913614, 35.981673537375286 ], [ -97.285391594675289, 35.983030339920937 ], [ -97.284823360696706, 35.984208610968004 ], [ -97.284482057681601, 35.985526168487254 ], [ -97.284426557956749, 35.986065663112463 ], [ -97.28459728076011, 35.98682641060963 ], [ -97.284764814221262, 35.987947018838796 ], [ -97.284707536603406, 35.988686435400737 ], [ -97.284977377356512, 35.98970767622194 ], [ -97.284992795591833, 35.990827390941995 ], [ -97.285562204797898, 35.992380203552081 ], [ -97.286010621008245, 35.993282527531143 ], [ -97.286579624453779, 35.994885317812944 ], [ -97.287100770410461, 35.996167931448376 ], [ -97.287351855828319, 35.996449304203189 ], [ -97.287602235659477, 35.996810645558519 ], [ -97.288130832005152, 35.997253583741617 ], [ -97.288860394406484, 35.997911612918493 ], [ -97.289362766580041, 35.998454356302375 ], [ -97.290064828458398, 35.999358140426779 ], [ -97.290388660333548, 36.000019800745214 ], [ -97.290937369628367, 36.001062638197034 ], [ -97.291411427772331, 36.001945095098165 ], [ -97.292164964234104, 36.002769189331005 ], [ -97.293319866480857, 36.0040954376936 ], [ -97.294499990216181, 36.005441810542763 ], [ -97.295733493977451, 36.006488582448689 ], [ -97.296941498805879, 36.007555186982728 ], [ -97.297899940478459, 36.008160502751629 ], [ -97.299202787434567, 36.008825766713777 ], [ -97.301023862334034, 36.009396022588383 ], [ -97.303782614389434, 36.010051578986371 ], [ -97.305808702164498, 36.01038301442604 ], [ -97.308189174314194, 36.010796399083823 ], [ -97.309612559772575, 36.01102438850004 ], [ -97.311031915281234, 36.011132378290739 ], [ -97.31311100080552, 36.011204080604031 ], [ -97.318386761071508, 36.011153702433418 ], [ -97.319529083267341, 36.011032122165041 ], [ -97.320825525568694, 36.010679471117115 ], [ -97.323165442178905, 36.009892751753327 ], [ -97.325023968819409, 36.009043347011122 ], [ -97.32609211538734, 36.008689376609503 ], [ -97.327108692653397, 36.008435079977787 ], [ -97.328176488424305, 36.008121074631333 ], [ -97.32937223818611, 36.007667812902461 ], [ -97.330568971627869, 36.007094586887156 ], [ -97.331767678744143, 36.006281441690703 ], [ -97.332992054240705, 36.005428439704282 ], [ -97.334373026481515, 36.004034470980152 ], [ -97.334808582800633, 36.003497032265379 ], [ -97.335169214986337, 36.00281923281036 ], [ -97.335454095453926, 36.002101031911373 ], [ -97.335741279370225, 36.001102938790865 ], [ -97.336697797902971, 35.998888906694866 ], [ -97.337727534105767, 35.997015143295251 ], [ -97.339320633813287, 35.99446465789778 ], [ -97.340142941473999, 35.993135563254967 ], [ -97.34090785502076, 35.992619877571407 ], [ -97.342564587429706, 35.991569178612693 ], [ -97.344808337335834, 35.99004177759933 ], [ -97.345548154547004, 35.989485939994402 ], [ -97.346134872562516, 35.989049235742833 ], [ -97.346875487573527, 35.988393428322432 ], [ -97.347741566423792, 35.987898233832247 ], [ -97.348632825970611, 35.987423158141645 ], [ -97.349471751943952, 35.987147730948116 ], [ -97.349701224885621, 35.986989010613691 ], [ -97.350337317706803, 35.986712495701404 ], [ -97.351635808378077, 35.986039634774606 ], [ -97.353238511162715, 35.985368375997851 ], [ -97.353874899758353, 35.985051858664995 ], [ -97.353899822300463, 35.994588746328233 ], [ -97.353912738164823, 36.159098761565687 ], [ -97.336214649273515, 36.159082010746474 ], [ -97.318372219766644, 36.159061890019835 ], [ -97.300480321691026, 36.15919505668581 ], [ -97.282733064804162, 36.159287407917532 ], [ -97.26468744561258, 36.159375390021161 ], [ -97.25026272887068, 36.159209669469995 ], [ -97.247085509642702, 36.159319438657505 ], [ -97.23016398887701, 36.159186576092281 ], [ -97.212074073894556, 36.159249728478947 ], [ -97.194211167427298, 36.159237473303293 ], [ -97.176369706224932, 36.159234129063307 ], [ -97.158444054033524, 36.159231942936813 ], [ -97.140579387668254, 36.159258616753959 ], [ -97.140611049938101, 36.173700706722499 ], [ -97.140688615163512, 36.18820342543389 ], [ -97.140859658002171, 36.202672738648666 ], [ -97.140797194566261, 36.217215809121114 ], [ -97.140922081855265, 36.231654416525579 ], [ -97.140903351165051, 36.246461824081464 ], [ -97.121491399296403, 36.24651271584942 ], [ -97.103616203621797, 36.246571795995514 ], [ -97.085684668639004, 36.246665590845694 ], [ -97.049860962360356, 36.246656873588485 ], [ -97.032032708166497, 36.246668116766124 ], [ -97.014105235436602, 36.246696830648197 ], [ -97.00026746635028, 36.246564525048591 ], [ -96.996339553427063, 36.246482615801803 ], [ -96.978611462155385, 36.24638566512332 ], [ -96.961299530330422, 36.246389189347383 ], [ -96.942832289281071, 36.246479795891517 ], [ -96.924971445467165, 36.246522887722627 ], [ -96.907125742067748, 36.246355689274644 ], [ -96.889148530431996, 36.246339343264729 ], [ -96.871452591626934, 36.24649760562572 ], [ -96.853474525914933, 36.246534227684812 ], [ -96.836747950308776, 36.246463676565966 ], [ -96.818917981404908, 36.246438412118948 ], [ -96.818256174478506, 36.231557158742156 ], [ -96.818744545014937, 36.216816399465465 ], [ -96.818754268275768, 36.202313013081188 ], [ -96.81876463233759, 36.187765522991825 ], [ -96.818977159660037, 36.173307928498694 ], [ -96.818965613347956, 36.158794664467251 ], [ -96.801930953183316, 36.158989452754433 ], [ -96.784220507014012, 36.159149390278429 ] ] ] ] } }
]
}
